[{"OBJECT_NAME":"STARLINK-32173","OBJECT_ID":"2024-150D","EPOCH":"2026-03-09T21:16:12.246240","MEAN_MOTION":15.30194091,"ECCENTRICITY":0.00015628,"INCLINATION":53.1595,"RA_OF_ASC_NODE":305.9594,"ARG_OF_PERICENTER":98.6981,"MEAN_ANOMALY":261.4197,"EPHEMERIS_TYPE":0,"CLASSIFICATION_TYPE":"U","NORAD_CAT_ID":60586,"ELEMENT_SET_NO":999,"REV_AT_EPOCH":8807,"BSTAR":-2.4970163e-5,"MEAN_MOTION_DOT":-1.099e-5,"MEAN_MOTION_DDOT":0},{"OBJECT_NAME":"COSMOS 1220 DEB","OBJECT_ID":"1980-089CJ","EPOCH":"2026-03-09T07:43:28.093152","MEAN_MOTION":15.40496181,"ECCENTRICITY":0.00585687,"INCLINATION":64.9701,"RA_OF_ASC_NODE":55.6717,"ARG_OF_PERICENTER":278.4574,"MEAN_ANOMALY":80.9929,"EPHEMERIS_TYPE":0,"CLASSIFICATION_TYPE":"U","NORAD_CAT_ID":25795,"ELEMENT_SET_NO":999,"REV_AT_EPOCH":55668,"BSTAR":0.00051020882,"MEAN_MOTION_DOT":0.00021921,"MEAN_MOTION_DDOT":0}]
